[
  {
    "OBJECT_NAME": "STARLINK-4400",
    "OBJECT_ID": "22099D",
    "EPOCH": "2025-11-11T06:47:26.626848",
    "MEAN_MOTION": 15.01267111,
    "ECCENTRICITY": 0.0001369,
    "INCLINATION": 97.6041,
    "RA_OF_ASC_NODE": 74.2912,
    "ARG_OF_PERICENTER": 81.8233,
    "MEAN_ANOMALY": 278.3146,
    "EPHEMERIS_TYPE": 0,
    "CLASSIFICATION_TYPE": "U",
    "NORAD_CAT_ID": 53468,
    "ELEMENT_SET_NO": 999,
    "REV_AT_EPOCH": 17821,
    "BSTAR": 0.00028907,
    "MEAN_MOTION_DOT": 3.657e-05,
    "MEAN_MOTION_DDOT": 0.0,
    "TLE_LINE1": "1 53468U 22099D   25315.28294707  .00003657  00000+0  28907-3 0  9992",
    "TLE_LINE2": "2 53468  97.6041  74.2912 0001369  81.8233 278.3146 15.01267111178219",
    "COMMENT": "Grouped by shell and plane from TLE"
  },
  {
    "OBJECT_NAME": "STARLINK-4399",
    "OBJECT_ID": "22099E",
    "EPOCH": "2025-11-11T07:26:15.615744",
    "MEAN_MOTION": 15.05646653,
    "ECCENTRICITY": 0.0001261,
    "INCLINATION": 97.6017,
    "RA_OF_ASC_NODE": 74.5532,
    "ARG_OF_PERICENTER": 82.1765,
    "MEAN_ANOMALY": 277.9605,
    "EPHEMERIS_TYPE": 0,
    "CLASSIFICATION_TYPE": "U",
    "NORAD_CAT_ID": 53469,
    "ELEMENT_SET_NO": 999,
    "REV_AT_EPOCH": 17823,
    "BSTAR": 7.0752e-05,
    "MEAN_MOTION_DOT": 9.6e-06,
    "MEAN_MOTION_DDOT": 0.0,
    "TLE_LINE1": "1 53469U 22099E   25315.30990296  .00000960  00000+0  70752-4 0  9992",
    "TLE_LINE2": "2 53469  97.6017  74.5532 0001261  82.1765 277.9605 15.05646653178232",
    "COMMENT": "Grouped by shell and plane from TLE"
  },
  {
    "OBJECT_NAME": "STARLINK-4393",
    "OBJECT_ID": "22099F",
    "EPOCH": "2025-11-11T06:44:25.736352",
    "MEAN_MOTION": 15.01263842,
    "ECCENTRICITY": 0.000204,
    "INCLINATION": 97.603,
    "RA_OF_ASC_NODE": 74.2896,
    "ARG_OF_PERICENTER": 89.8778,
    "MEAN_ANOMALY": 270.268,
    "EPHEMERIS_TYPE": 0,
    "CLASSIFICATION_TYPE": "U",
    "NORAD_CAT_ID": 53470,
    "ELEMENT_SET_NO": 999,
    "REV_AT_EPOCH": 17821,
    "BSTAR": 0.00010059999999999999,
    "MEAN_MOTION_DOT": 1.234e-05,
    "MEAN_MOTION_DDOT": 0.0,
    "TLE_LINE1": "1 53470U 22099F   25315.28085343  .00001234  00000+0  10060-3 0  9999",
    "TLE_LINE2": "2 53470  97.6030  74.2896 0002040  89.8778 270.2680 15.01263842178211",
    "COMMENT": "Grouped by shell and plane from TLE"
  },
  {
    "OBJECT_NAME": "STARLINK-4316",
    "OBJECT_ID": "22099G",
    "EPOCH": "2025-11-11T06:18:27.540000",
    "MEAN_MOTION": 15.05638884,
    "ECCENTRICITY": 0.0001233,
    "INCLINATION": 97.6019,
    "RA_OF_ASC_NODE": 74.4541,
    "ARG_OF_PERICENTER": 89.2966,
    "MEAN_ANOMALY": 270.8402,
    "EPHEMERIS_TYPE": 0,
    "CLASSIFICATION_TYPE": "U",
    "NORAD_CAT_ID": 53471,
    "ELEMENT_SET_NO": 999,
    "REV_AT_EPOCH": 17822,
    "BSTAR": 0.00014798,
    "MEAN_MOTION_DOT": 2.075e-05,
    "MEAN_MOTION_DDOT": 0.0,
    "TLE_LINE1": "1 53471U 22099G   25315.26281875  .00002075  00000+0  14798-3 0  9992",
    "TLE_LINE2": "2 53471  97.6019  74.4541 0001233  89.2966 270.8402 15.05638884178229",
    "COMMENT": "Grouped by shell and plane from TLE"
  },
  {
    "OBJECT_NAME": "STARLINK-4447",
    "OBJECT_ID": "22099H",
    "EPOCH": "2025-11-11T06:39:05.933664",
    "MEAN_MOTION": 15.01260893,
    "ECCENTRICITY": 0.0002365,
    "INCLINATION": 97.6036,
    "RA_OF_ASC_NODE": 74.2912,
    "ARG_OF_PERICENTER": 88.4752,
    "MEAN_ANOMALY": 271.6743,
    "EPHEMERIS_TYPE": 0,
    "CLASSIFICATION_TYPE": "U",
    "NORAD_CAT_ID": 53472,
    "ELEMENT_SET_NO": 999,
    "REV_AT_EPOCH": 17821,
    "BSTAR": 9.4826e-05,
    "MEAN_MOTION_DOT": 1.16e-05,
    "MEAN_MOTION_DDOT": 0.0,
    "TLE_LINE1": "1 53472U 22099H   25315.27715201  .00001160  00000+0  94826-4 0  9994",
    "TLE_LINE2": "2 53472  97.6036  74.2912 0002365  88.4752 271.6743 15.01260893178213",
    "COMMENT": "Grouped by shell and plane from TLE"
  },
  {
    "OBJECT_NAME": "STARLINK-4383",
    "OBJECT_ID": "22099J",
    "EPOCH": "2025-11-11T07:06:19.075968",
    "MEAN_MOTION": 15.05653406,
    "ECCENTRICITY": 7.44e-05,
    "INCLINATION": 97.603,
    "RA_OF_ASC_NODE": 74.5553,
    "ARG_OF_PERICENTER": 92.1013,
    "MEAN_ANOMALY": 268.0299,
    "EPHEMERIS_TYPE": 0,
    "CLASSIFICATION_TYPE": "U",
    "NORAD_CAT_ID": 53473,
    "ELEMENT_SET_NO": 999,
    "REV_AT_EPOCH": 17823,
    "BSTAR": 6.0605e-05,
    "MEAN_MOTION_DOT": 8.14e-06,
    "MEAN_MOTION_DDOT": 0.0,
    "TLE_LINE1": "1 53473U 22099J   25315.29605412  .00000814  00000+0  60605-4 0  9992",
    "TLE_LINE2": "2 53473  97.6030  74.5553 0000744  92.1013 268.0299 15.05653406178231",
    "COMMENT": "Grouped by shell and plane from TLE"
  },
  {
    "OBJECT_NAME": "STARLINK-4445",
    "OBJECT_ID": "22099K",
    "EPOCH": "2025-11-11T06:20:47.308416",
    "MEAN_MOTION": 15.01268649,
    "ECCENTRICITY": 0.000388,
    "INCLINATION": 97.6028,
    "RA_OF_ASC_NODE": 74.2758,
    "ARG_OF_PERICENTER": 76.0527,
    "MEAN_ANOMALY": 284.1129,
    "EPHEMERIS_TYPE": 0,
    "CLASSIFICATION_TYPE": "U",
    "NORAD_CAT_ID": 53474,
    "ELEMENT_SET_NO": 999,
    "REV_AT_EPOCH": 17821,
    "BSTAR": 5.5823000000000004e-05,
    "MEAN_MOTION_DOT": 6.59e-06,
    "MEAN_MOTION_DDOT": 0.0,
    "TLE_LINE1": "1 53474U 22099K   25315.26443644  .00000659  00000+0  55823-4 0  9990",
    "TLE_LINE2": "2 53474  97.6028  74.2758 0003880  76.0527 284.1129 15.01268649178214",
    "COMMENT": "Grouped by shell and plane from TLE"
  },
  {
    "OBJECT_NAME": "STARLINK-4389",
    "OBJECT_ID": "22099L",
    "EPOCH": "2025-11-11T06:28:23.522016",
    "MEAN_MOTION": 15.01291593,
    "ECCENTRICITY": 0.0002142,
    "INCLINATION": 97.603,
    "RA_OF_ASC_NODE": 74.2827,
    "ARG_OF_PERICENTER": 85.9386,
    "MEAN_ANOMALY": 274.2083,
    "EPHEMERIS_TYPE": 0,
    "CLASSIFICATION_TYPE": "U",
    "NORAD_CAT_ID": 53475,
    "ELEMENT_SET_NO": 999,
    "REV_AT_EPOCH": 17891,
    "BSTAR": 0.00046191,
    "MEAN_MOTION_DOT": 5.885e-05,
    "MEAN_MOTION_DDOT": 0.0,
    "TLE_LINE1": "1 53475U 22099L   25315.26971669  .00005885  00000+0  46191-3 0  9997",
    "TLE_LINE2": "2 53475  97.6030  74.2827 0002142  85.9386 274.2083 15.01291593178917",
    "COMMENT": "Grouped by shell and plane from TLE"
  },
  {
    "OBJECT_NAME": "STARLINK-4378",
    "OBJECT_ID": "22099M",
    "EPOCH": "2025-11-11T06:33:46.049760",
    "MEAN_MOTION": 15.01264556,
    "ECCENTRICITY": 0.0002966,
    "INCLINATION": 97.6012,
    "RA_OF_ASC_NODE": 74.2901,
    "ARG_OF_PERICENTER": 83.9751,
    "MEAN_ANOMALY": 276.1812,
    "EPHEMERIS_TYPE": 0,
    "CLASSIFICATION_TYPE": "U",
    "NORAD_CAT_ID": 53476,
    "ELEMENT_SET_NO": 999,
    "REV_AT_EPOCH": 17821,
    "BSTAR": 1.415e-05,
    "MEAN_MOTION_DOT": 1.23e-06,
    "MEAN_MOTION_DDOT": 0.0,
    "TLE_LINE1": "1 53476U 22099M   25315.27344965  .00000123  00000+0  14150-4 0  9993",
    "TLE_LINE2": "2 53476  97.6012  74.2901 0002966  83.9751 276.1812 15.01264556178212",
    "COMMENT": "Grouped by shell and plane from TLE"
  },
  {
    "OBJECT_NAME": "STARLINK-4412",
    "OBJECT_ID": "22099N",
    "EPOCH": "2025-11-11T06:49:45.761088",
    "MEAN_MOTION": 15.01261489,
    "ECCENTRICITY": 9.43e-05,
    "INCLINATION": 97.6046,
    "RA_OF_ASC_NODE": 74.2552,
    "ARG_OF_PERICENTER": 167.7975,
    "MEAN_ANOMALY": 192.3272,
    "EPHEMERIS_TYPE": 0,
    "CLASSIFICATION_TYPE": "U",
    "NORAD_CAT_ID": 53477,
    "ELEMENT_SET_NO": 999,
    "REV_AT_EPOCH": 17891,
    "BSTAR": 0.00011276999999999999,
    "MEAN_MOTION_DOT": 1.391e-05,
    "MEAN_MOTION_DDOT": 0.0,
    "TLE_LINE1": "1 53477U 22099N   25315.28455742  .00001391  00000+0  11277-3 0  9995",
    "TLE_LINE2": "2 53477  97.6046  74.2552 0000943 167.7975 192.3272 15.01261489178912",
    "COMMENT": "Grouped by shell and plane from TLE"
  },
  {
    "OBJECT_NAME": "STARLINK-4433",
    "OBJECT_ID": "22099P",
    "EPOCH": "2025-11-11T06:23:06.188640",
    "MEAN_MOTION": 15.01263639,
    "ECCENTRICITY": 0.0003114,
    "INCLINATION": 97.6028,
    "RA_OF_ASC_NODE": 74.2905,
    "ARG_OF_PERICENTER": 87.8582,
    "MEAN_ANOMALY": 272.2999,
    "EPHEMERIS_TYPE": 0,
    "CLASSIFICATION_TYPE": "U",
    "NORAD_CAT_ID": 53478,
    "ELEMENT_SET_NO": 999,
    "REV_AT_EPOCH": 17821,
    "BSTAR": 3.0615e-05,
    "MEAN_MOTION_DOT": 3.35e-06,
    "MEAN_MOTION_DDOT": 0.0,
    "TLE_LINE1": "1 53478U 22099P   25315.26604385  .00000335  00000+0  30615-4 0  9998",
    "TLE_LINE2": "2 53478  97.6028  74.2905 0003114  87.8582 272.2999 15.01263639178210",
    "COMMENT": "Grouped by shell and plane from TLE"
  },
  {
    "OBJECT_NAME": "STARLINK-4436",
    "OBJECT_ID": "22099Q",
    "EPOCH": "2025-11-11T06:34:25.419648",
    "MEAN_MOTION": 15.05656218,
    "ECCENTRICITY": 0.0001662,
    "INCLINATION": 97.6031,
    "RA_OF_ASC_NODE": 74.5661,
    "ARG_OF_PERICENTER": 88.6665,
    "MEAN_ANOMALY": 271.4752,
    "EPHEMERIS_TYPE": 0,
    "CLASSIFICATION_TYPE": "U",
    "NORAD_CAT_ID": 53479,
    "ELEMENT_SET_NO": 999,
    "REV_AT_EPOCH": 17823,
    "BSTAR": 0.0,
    "MEAN_MOTION_DOT": -3.04e-06,
    "MEAN_MOTION_DDOT": 0.0,
    "TLE_LINE1": "1 53479U 22099Q   25315.27390532 -.00000304  00000+0 -16828-4 0  9994",
    "TLE_LINE2": "2 53479  97.6031  74.5661 0001662  88.6665 271.4752 15.05656218178237",
    "COMMENT": "Grouped by shell and plane from TLE"
  },
  {
    "OBJECT_NAME": "STARLINK-4442",
    "OBJECT_ID": "22099R",
    "EPOCH": "2025-11-11T07:34:13.798272",
    "MEAN_MOTION": 15.05645952,
    "ECCENTRICITY": 0.0001332,
    "INCLINATION": 97.6023,
    "RA_OF_ASC_NODE": 74.5205,
    "ARG_OF_PERICENTER": 82.4287,
    "MEAN_ANOMALY": 277.7091,
    "EPHEMERIS_TYPE": 0,
    "CLASSIFICATION_TYPE": "U",
    "NORAD_CAT_ID": 53480,
    "ELEMENT_SET_NO": 999,
    "REV_AT_EPOCH": 17823,
    "BSTAR": 4.5777000000000006e-05,
    "MEAN_MOTION_DOT": 6e-06,
    "MEAN_MOTION_DDOT": 0.0,
    "TLE_LINE1": "1 53480U 22099R   25315.31543748  .00000600  00000+0  45777-4 0  9992",
    "TLE_LINE2": "2 53480  97.6023  74.5205 0001332  82.4287 277.7091 15.05645952178238",
    "COMMENT": "Grouped by shell and plane from TLE"
  }
]